STARLINK-2226_new
1 18010C 21024AK  21326.08679845 -.00007665  00000-0 -51349-3 0  3268
2 18010  53.0488 178.3634 0002208  78.1621 135.1519 15.06408220    16
STARLINK-2226_old
1 28010C 21024AK  21325.09009423  .00007156  00000-0  47942-3 0  3253
2 28010  53.0491 182.8382 0002201  76.8591 128.2946 15.06393623    11
